IRIDIUM 921 [-]         
1 24873U 97034E   23322.22841995  .00010626  00000+0  38915-3 0  9992
2 24873  86.3889  31.9479 0004139   2.3050 357.8216 15.27879717442712
IRIDIUM 26 [-]          
1 24903U 97043A   23322.52984054  .00000384  00000+0  12543-3 0  9992
2 24903  86.3971 352.5756 0002150  98.3015 261.8425 14.36083055373951
IRIDIUM 22 [-]          
1 24907U 97043E   23322.49258023  .00000361  00000+0  12010-3 0  9996
2 24907  86.3978 355.6589 0002157  91.7138 268.4305 14.34989795374045
DUMMY MASS 1 [-]        
1 24925U 97048A   23322.48934218  .00000462  00000+0  49786-4 0  9990
2 24925  86.3378  41.7640 0008273  44.2352 315.9532 14.85929499419463
DUMMY MASS 2 [-]        
1 24926U 97048B   23322.49173885  .00000456  00000+0  49359-4 0  9996
2 24926  86.3377  43.2685 0009372  51.8472 308.3595 14.85690491419256
IRIDIUM 29 [-]          
1 24944U 97051A   23322.42307857  .00000376  00000+0  12411-3 0  9990
2 24944  86.3994  25.6466 0002086  87.1590 272.9845 14.35444358370502
IRIDIUM 33 [-]          
1 24946U 97051C   23322.53603025  .00000277  00000+0  91785-4 0  9992
2 24946  86.3908  24.8709 0008996 147.3777 212.7976 14.34178661370071
IRIDIUM 28 [-]          
1 24948U 97051E   23322.42715184  .00000404  00000+0  13120-3 0  9990
2 24948  86.3999  23.4932 0002256 104.8872 255.2575 14.36389587371029
